[{"OBJECT_NAME":"STARLINK-30133","OBJECT_ID":"2023-079Q","EPOCH":"2026-03-09T22:00:01.999584","MEAN_MOTION":15.21613219,"ECCENTRICITY":0.00012374,"INCLINATION":43.0015,"RA_OF_ASC_NODE":104.9884,"ARG_OF_PERICENTER":256.9041,"MEAN_ANOMALY":41.2768,"EPHEMERIS_TYPE":0,"CLASSIFICATION_TYPE":"U","NORAD_CAT_ID":56837,"ELEMENT_SET_NO":999,"REV_AT_EPOCH":567,"BSTAR":0.036862138,"MEAN_MOTION_DOT":0.00916731,"MEAN_MOTION_DDOT":0},{"OBJECT_NAME":"SHIJIAN-26 (SJ-26)","OBJECT_ID":"2025-115A","EPOCH":"2026-03-09T23:52:58.004256","MEAN_MOTION":15.22558479,"ECCENTRICITY":0.00187049,"INCLINATION":97.4605,"RA_OF_ASC_NODE":148.1925,"ARG_OF_PERICENTER":345.0182,"MEAN_ANOMALY":15.0498,"EPHEMERIS_TYPE":0,"CLASSIFICATION_TYPE":"U","NORAD_CAT_ID":64199,"ELEMENT_SET_NO":999,"REV_AT_EPOCH":4334,"BSTAR":0.00030941368,"MEAN_MOTION_DOT":7.145e-5,"MEAN_MOTION_DDOT":0}]
